[{"OBJECT_NAME":"FLOCK 4G-34","OBJECT_ID":"2025-009AT","EPOCH":"2026-03-09T17:34:06.952224","MEAN_MOTION":15.27131464,"ECCENTRICITY":6.743e-5,"INCLINATION":97.4004,"RA_OF_ASC_NODE":151.0149,"ARG_OF_PERICENTER":348.828,"MEAN_ANOMALY":11.2944,"EPHEMERIS_TYPE":0,"CLASSIFICATION_TYPE":"U","NORAD_CAT_ID":62650,"ELEMENT_SET_NO":999,"REV_AT_EPOCH":6372,"BSTAR":0.00049338357,"MEAN_MOTION_DOT":0.00013063,"MEAN_MOTION_DDOT":0},{"OBJECT_NAME":"STARLINK-36091","OBJECT_ID":"2025-281A","EPOCH":"2026-03-09T04:18:42.042528","MEAN_MOTION":15.27588939,"ECCENTRICITY":0.00021245,"INCLINATION":43.0012,"RA_OF_ASC_NODE":346.6908,"ARG_OF_PERICENTER":234.1897,"MEAN_ANOMALY":125.8758,"EPHEMERIS_TYPE":0,"CLASSIFICATION_TYPE":"U","NORAD_CAT_ID":66848,"ELEMENT_SET_NO":999,"REV_AT_EPOCH":1478,"BSTAR":0.00099324701,"MEAN_MOTION_DOT":0.00027179,"MEAN_MOTION_DDOT":0}]
